RED-EYE 3 (CABERNET)    
1 45809U 98067RN  20349.78320294  .00003649  00000-0  69036-4 0  9999
2 45809  51.6402 173.5730 0000801 343.2207  16.8756 15.51172081 26981
DEMI                    
1 45916U 98067RP  20349.95812097  .00008733  00000-0  14464-3 0  9997
2 45916  51.6397 171.7485 0002100 237.2193 122.8595 15.53013601 24015
TECHEDSAT 10            
1 45917U 98067RQ  20349.22091576  .00083670  00000-0  88549-3 0  9997
2 45917  51.6354 171.3168 0005569 247.0880 112.9527 15.63408356 23905
PROGRESS-MS 15          
1 45937U 20050A   20348.54999068  .00000948  00000-0  25206-4 0  9992
2 45937  51.6445 180.9789 0001783 128.1963 279.5916 15.49180997 22158
CYGNUS NG-14            
1 46530U 20069A   20348.54999068  .00000948  00000-0  25206-4 0  9992
2 46530  51.6445 180.9789 0001783 128.1963 279.5916 15.49180997 11088
SOYUZ-MS 17             
1 46613U 20072A   20348.54999068  .00000948  00000-0  25206-4 0  9998
2 46613  51.6445 180.9789 0001783 128.1963 279.5916 15.49180997  9357
CREW DRAGON 1           
1 46920U 20084A   20348.54999068  .00000948  00000-0  25206-4 0  9992
2 46920  51.6445 180.9789 0001783 128.1963 279.5916 15.49180997  4274
SPOC                    
1 46921U 98067RR  20349.79707219  .00008232  00000-0  14712-3 0  9995
2 46921  51.6409 174.4168 0002825 115.8313 244.2968 15.50948250  6166
BOBCAT-1                
1 46922U 98067RS  20349.79452243  .00011014  00000-0  19238-3 0  9990
2 46922  51.6409 174.4004 0002557 123.3153 236.8081 15.51205710  6121
NEUTRON-1               
1 46923U 98067RT  20349.79925125  .00007876  00000-0  14156-3 0  9990
2 46923  51.6408 174.4309 0002748 127.1572 232.9668 15.50852700  6199
1998-067RU              
1 46924U 98067RU  20349.79148568  .00016329  00000-0  27728-3 0  9991
2 46924  51.6406 174.3790 0002802 159.2481 200.8622 15.51610404  6162
LEMUR-2-BAXTER-OLIVER   
1 46925U 98067RV  20349.08039425  .00009069  00000-0  15678-3 0  9999
2 46925  51.6410 177.8811 0002742 160.7495 199.3599 15.51749970  6026
LEMUR-2-DJARA           
1 46926U 98067RW  20349.01818997  .00020374  00000-0  34392-3 0  9998
2 46926  51.6409 178.2157 0002236 144.4826 215.6313 15.51609563  6038
DESCENT                 
1 46927U 98067RX  20349.73644693  .00008178  00000-0  14695-3 0  9990
2 46927  51.6406 174.7612 0002868 144.6997 215.4182 15.50803540  6093
DRAGON CRS-21           
1 47233U 20093A   20348.54999068  .00000948  00000-0  25206-4 0  9990
2 47233  51.6445 180.9789 0001783 128.1963 279.5916 15.49180997  1077
